NORAD_CAT_ID,OBJECT_NAME,OBJECT_TYPE,EPOCH,MEAN_MOTION,ECCENTRICITY,INCLINATION,RA_OF_ASC_NODE,ARG_OF_PERICENTER,MEAN_ANOMALY,BSTAR,MEAN_MOTION_DOT,MEAN_MOTION_DDOT,TLE_LINE0,TLE_LINE1,TLE_LINE2,SEMIMAJOR_AXIS,PERIOD,APOGEE,PERIGEE,DECAYED
52617.0,STARLINK-3996,PAYLOAD,2022-06-09 14:00:01,15.73224999,0.0001162,53.2134,312.1882,64.8534,209.8207,-0.00065958,-0.00092276,0.0,0 STARLINK-3996,1 52617U 22052V   22160.58334491 -.00092276  00000-0 -65958-3 0  9994,2 52617  53.2134 312.1882 0001162  64.8534 209.8207 15.73224999  1309,6727.824000000001,91.532,350.471,348.907,0.0
52617.0,STARLINK-3996,PAYLOAD,2022-06-09 20:00:01,15.73137611,0.0001177,53.2132,310.9523,51.9709,199.4105,0.00058841,0.00082553,0.0,0 STARLINK-3996,1 52617U 22052V   22160.83334491  .00082553  00000-0  58841-3 0  9990,2 52617  53.2132 310.9523 0001177  51.9709 199.4105 15.73137611  4478,6728.073,91.537,350.73,349.146,0.0
52617.0,STARLINK-3996,PAYLOAD,2022-06-09 22:00:00,15.73154641,0.000115,53.2127,310.5397,49.4123,314.1849,0.00049794,0.00069708,0.0,0 STARLINK-3996,1 52617U 22052V   22160.91667824  .00069708  00000-0  49794-3 0  9992,2 52617  53.2127 310.5397 0001150  49.4123 314.1849 15.73154641  1302,6728.024,91.536,350.663,349.116,0.0
52617.0,STARLINK-3996,PAYLOAD,2022-06-10 12:00:02,15.73257381,0.0001124,53.2133,307.6506,61.0621,8.1987,-0.00028086,-0.00039946,0.0,0 STARLINK-3996,1 52617U 22052V   22161.50002315 -.00039946  00000-0 -28086-3 0  9990,2 52617  53.2133 307.6506 0001124  61.0621   8.1987 15.73257381  4583,6727.732,91.53,350.353,348.84,0.0
52617.0,STARLINK-3996,PAYLOAD,2022-06-10 14:00:01,15.73268783,0.0001182,53.2133,307.2388,58.4969,122.9413,-0.00058284,-0.00081865,0.0,0 STARLINK-3996,1 52617U 22052V   22161.58334491 -.00081865  00000-0 -58284-3 0  9991,2 52617  53.2133 307.2388 0001182  58.4969 122.9413 15.73268783  1300,6727.699000000001,91.529,350.3590000000001,348.769,0.0
52617.0,STARLINK-3996,PAYLOAD,2022-06-10 22:00:00,15.73202402,0.0001277,53.213,305.5899,47.9717,222.4492,0.00031792,0.00044238,0.0,0 STARLINK-3996,1 52617U 22052V   22161.91667824  .00044238  00000-0  31792-3 0  9993,2 52617  53.2130 305.5899 0001277  47.9717 222.4492 15.73202402  1303,6727.888000000001,91.533,350.612,348.894,0.0
52617.0,STARLINK-3996,PAYLOAD,2022-06-11 12:00:00,15.73215575,0.0001121,53.2132,302.7016,50.3345,285.7292,5.5831e-05,7.228e-05,0.0,0 STARLINK-3996,1 52617U 22052V   22162.50001157  .00007228  00000-0  55831-4 0  9999,2 52617  53.2132 302.7016 0001121  50.3345 285.7292 15.73215575  4733,6727.851,91.532,350.47,348.962,0.0
52617.0,STARLINK-3996,PAYLOAD,2022-06-11 22:00:00,15.73206626,0.0001393,53.2123,300.6407,43.8208,133.434,-4.0405e-05,-6.288e-05,0.0,0 STARLINK-3996,1 52617U 22052V   22162.91667824 -.00006288  00000-0 -40405-4 0  9991,2 52617  53.2123 300.6407 0001393  43.8208 133.4340 15.73206626  1300,6727.876,91.533,350.67800000000005,348.80400000000014,0.0
52617.0,STARLINK-3996,PAYLOAD,2022-06-12 12:00:00,15.73239105,0.0001462,53.2131,297.7525,55.8344,187.0546,-0.00048703,-0.00068533,0.0,0 STARLINK-3996,1 52617U 22052V   22163.50001157 -.00068533  00000-0 -48703-3 0  9997,2 52617  53.2131 297.7525 0001462  55.8344 187.0546 15.73239105  4895,6727.784000000002,91.531,350.63199999999995,348.665,0.0
52617.0,STARLINK-3996,PAYLOAD,2022-06-12 14:00:01,15.73211452,0.000152,53.2131,297.3406,53.3573,301.7783,-0.00021279,-0.00030391,0.0,0 STARLINK-3996,1 52617U 22052V   22163.58334491 -.00030391  00000-0 -21279-3 0  9995,2 52617  53.2131 297.3406 0001520  53.3573 301.7783 15.73211452  1307,6727.863,91.533,350.75,348.705,0.0
52617.0,STARLINK-3996,PAYLOAD,2022-06-12 20:00:01,15.732021599999998,0.0001574,53.213,296.1043,44.2728,287.5702,-6.742e-05,-0.00010072,0.0,0 STARLINK-3996,1 52617U 22052V   22163.83334491 -.00010072  00000-0 -67420-4 0  9996,2 52617  53.2130 296.1043 0001574  44.2728 287.5702 15.73202160  4941,6727.889,91.533,350.81300000000016,348.695,0.0
52617.0,STARLINK-3996,PAYLOAD,2022-06-12 22:00:00,15.73209428,0.0001541,53.2129,295.6913,43.1281,40.9457,-0.00022311,-0.00031827,0.0,0 STARLINK-3996,1 52617U 22052V   22163.91667824 -.00031827  00000-0 -22311-3 0  9994,2 52617  53.2129 295.6913 0001541  43.1281  40.9457 15.73209428  1304,6727.868,91.533,350.77,348.69699999999995,0.0
52617.0,STARLINK-3996,PAYLOAD,2022-06-13 12:00:00,15.73269284,0.0001394,53.2132,292.8037,43.2626,106.4389,-0.00046502,-0.0006557,0.0,0 STARLINK-3996,1 52617U 22052V   22164.50001157 -.00065570  00000-0 -46502-3 0  9991,2 52617  53.2132 292.8037 0001394  43.2626 106.4389 15.73269284  5058,6727.698,91.529,350.5,348.625,0.0
52617.0,STARLINK-3996,PAYLOAD,2022-06-13 14:00:01,15.73270037,0.0001443,53.2129,292.3919,39.5984,222.3498,-0.00062796,-0.00088097,0.0,0 STARLINK-3996,1 52617U 22052V   22164.58334491 -.00088097  00000-0 -62796-3 0  9991,2 52617  53.2129 292.3919 0001443  39.5984 222.3498 15.73270037  1309,6727.696,91.529,350.531,348.59,0.0
52617.0,STARLINK-3996,PAYLOAD,2022-06-13 20:00:01,15.73219914,0.0001534,53.2125,291.1552,33.3635,205.3391,-4.5362e-05,-6.987e-05,0.0,0 STARLINK-3996,1 52617U 22052V   22164.83334491 -.00006987  00000-0 -45362-4 0  9998,2 52617  53.2125 291.1552 0001534  33.3635 205.3391 15.73219914  5103,6727.8380000000025,91.532,350.735,348.671,0.0
52617.0,STARLINK-3996,PAYLOAD,2022-06-13 22:00:00,15.73240244,0.0001524,53.2124,290.7423,33.4049,317.5293,-0.00038438,-0.00054312,0.0,0 STARLINK-3996,1 52617U 22052V   22164.91667824 -.00054312  00000-0 -38438-3 0  9996,2 52617  53.2124 290.7423 0001524  33.4049 317.5293 15.73240244  1308,6727.78,91.531,350.671,348.62,0.0
52617.0,STARLINK-3996,PAYLOAD,2022-06-14 14:00:01,15.73213039,0.0001716,53.213,287.4428,41.6126,127.2099,-0.00051959,-0.00072956,0.0,0 STARLINK-3996,1 52617U 22052V   22165.58334491 -.00072956  00000-0 -51959-3 0  9998,2 52617  53.2130 287.4428 0001716  41.6126 127.2099 15.73213039  1305,6727.858,91.532,350.87699999999984,348.5680000000001,0.0
52617.0,STARLINK-3996,PAYLOAD,2022-06-14 20:00:01,15.73037405,0.0001928,53.2128,286.2066,23.357,122.0078,0.00049093,0.00068364,0.0,0 STARLINK-3996,1 52617U 22052V   22165.83334491  .00068364  00000-0  49093-3 0  9998,2 52617  53.2128 286.2066 0001928  23.3570 122.0078 15.73037405  5262,6728.359,91.543,351.521,348.927,0.0
52617.0,STARLINK-3996,PAYLOAD,2022-06-14 22:00:00,15.73060353,0.0001899,53.2128,285.7937,23.3164,234.2319,0.00025414,0.00034984,0.0,0 STARLINK-3996,1 52617U 22052V   22165.91667824  .00034984  00000-0  25414-3 0  9998,2 52617  53.2128 285.7937 0001899  23.3164 234.2319 15.73060353  1302,6728.293000000002,91.541,351.436,348.881,0.0
52617.0,STARLINK-3996,PAYLOAD,2022-06-15 04:00:00,15.73158626,0.0001983,53.2131,284.5552,13.0217,221.2127,0.00066866,0.00094115,0.0,0 STARLINK-3996,1 52617U 22052V   22166.16667824  .00094115  00000-0  66866-3 0  9994,2 52617  53.2131 284.5552 0001983  13.0217 221.2127 15.73158626  5314,6728.013000000001,91.536,351.212,348.5440000000001,0.0
52617.0,STARLINK-3996,PAYLOAD,2022-06-15 12:00:02,15.73257028,0.0002108,53.2128,282.9068,13.9801,309.2289,-0.00039226,-0.00055451,0.0,0 STARLINK-3996,1 52617U 22052V   22166.50002315 -.00055451  00000-0 -39226-3 0  9992,2 52617  53.2128 282.9068 0002108  13.9801 309.2289 15.73257028  5369,6727.733,91.53,351.016,348.17900000000014,0.0
52617.0,STARLINK-3996,PAYLOAD,2022-06-15 14:00:01,15.73251629,0.0002207,53.2126,282.4951,13.8268,61.5612,-0.00039307,-0.00055552,0.0,0 STARLINK-3996,1 52617U 22052V   22166.58334491 -.00055552  00000-0 -39307-3 0  9995,2 52617  53.2126 282.4951 0002207  13.8268  61.5612 15.73251629  1308,6727.748000000001,91.53,351.098,348.12800000000016,0.0
52617.0,STARLINK-3996,PAYLOAD,2022-06-15 20:00:01,15.73155593,0.0002372,53.212,281.258,15.5883,36.5641,0.0023887,0.00348235,0.0,0 STARLINK-3996,1 52617U 22052V   22166.83334491  .00348235  00000-0  23887-2 0  9999,2 52617  53.2120 281.2580 0002372  15.5883  36.5641 15.73155593  5426,6728.022,91.536,351.483,348.291,0.0
52617.0,STARLINK-3996,PAYLOAD,2022-06-15 22:00:00,15.73232317,0.0002315,53.212,280.8451,15.8463,148.5289,0.001989,0.00288736,0.0,0 STARLINK-3996,1 52617U 22052V   22166.91667824  .00288736  00000-0  19890-2 0  9995,2 52617  53.2120 280.8451 0002315  15.8463 148.5289 15.73232317  1307,6727.803000000001,91.531,351.226,348.111,0.0
52617.0,STARLINK-3996,PAYLOAD,2022-06-16 02:00:01,15.73397765,0.0002235,53.2124,280.0192,18.5525,10.3235,0.00055035,0.00078004,0.0,0 STARLINK-3996,1 52617U 22052V   22167.08334491  .00078004  00000-0  55035-3 0  9992,2 52617  53.2124 280.0192 0002235  18.5525  10.3235 15.73397765  1301,6727.331,91.522,350.7,347.6930000000001,0.0
52617.0,STARLINK-3996,PAYLOAD,2022-06-19 14:00:01,15.73214378,0.0002885,53.2135,262.7004,15.0429,47.6163,-0.00024126,-0.00034372,0.0,0 STARLINK-3996,1 52617U 22052V   22170.58334491 -.00034372  00000-0 -24126-3 0  9990,2 52617  53.2135 262.7004 0002885  15.0429  47.6163 15.73214378  1309,6727.854,91.532,351.66,347.778,0.0
52617.0,STARLINK-3996,PAYLOAD,2022-06-19 22:00:00,15.73198541,0.0002793,53.2123,261.0497,11.1649,140.4433,-2.5488e-05,-4.198e-05,0.0,0 STARLINK-3996,1 52617U 22052V   22170.91667824 -.00004198  00000-0 -25488-4 0  9992,2 52617  53.2123 261.0497 0002793  11.1649 140.4433 15.73198541  1308,6727.899,91.533,351.64300000000014,347.885,0.0
52617.0,STARLINK-3996,PAYLOAD,2022-06-20 04:00:01,15.73174837,0.0002607,53.2123,259.8112,11.9247,116.4426,0.00066484,0.0009364,0.0,0 STARLINK-3996,1 52617U 22052V   22171.16668981  .00093640  00000-0  66484-3 0  9993,2 52617  53.2123 259.8112 0002607  11.9247 116.4426 15.73174837  6103,6727.967,91.535,351.586,348.07800000000015,0.0
52617.0,STARLINK-3996,PAYLOAD,2022-06-20 12:00:00,15.73267016,0.0002865,53.2129,258.1633,11.0176,206.2189,-0.00057473,-0.00080763,0.0,0 STARLINK-3996,1 52617U 22052V   22171.50001157 -.00080763  00000-0 -57473-3 0  9999,2 52617  53.2129 258.1633 0002865  11.0176 206.2189 15.73267016  6158,6727.704000000002,91.529,351.497,347.642,0.0
